CCSDS_OMM_VERS = 2.0
CREATION_DATE  = 
ORIGINATOR     = 

OBJECT_NAME    = ZORKIY-2M-VPE
OBJECT_ID      = 2025-313E
CENTER_NAME    = EARTH
REF_FRAME      = TEME
TIME_SYSTEM    = UTC
MEAN_ELEMENT_THEORY = SGP/SGP4

EPOCH          = 2026-01-19T15:25:19.699104
MEAN_MOTION    = 15.21715606
ECCENTRICITY   = .00114479
INCLINATION    = 97.4107
RA_OF_ASC_NODE = 96.7714
ARG_OF_PERICENTER = 141.8698
MEAN_ANOMALY   = 218.3351

EPHEMERIS_TYPE = 0
CLASSIFICATION_TYPE = U
NORAD_CAT_ID   = 67252
ELEMENT_SET_NO = 999
REV_AT_EPOCH   = 336
BSTAR          = .34491256E-3
MEAN_MOTION_DOT = .7756E-4
MEAN_MOTION_DDOT = 0

CCSDS_OMM_VERS = 2.0
CREATION_DATE  = 
ORIGINATOR     = 

OBJECT_NAME    = AIST-2T 1
OBJECT_ID      = 2025-313F
CENTER_NAME    = EARTH
REF_FRAME      = TEME
TIME_SYSTEM    = UTC
MEAN_ELEMENT_THEORY = SGP/SGP4

EPOCH          = 2026-01-19T11:41:56.807520
MEAN_MOTION    = 15.65556550
ECCENTRICITY   = .00106176
INCLINATION    = 97.1024
RA_OF_ASC_NODE = 96.8542
ARG_OF_PERICENTER = 159.0406
MEAN_ANOMALY   = 201.1292

EPHEMERIS_TYPE = 0
CLASSIFICATION_TYPE = U
NORAD_CAT_ID   = 67253
ELEMENT_SET_NO = 999
REV_AT_EPOCH   = 341
BSTAR          = .61082772E-3
MEAN_MOTION_DOT = .61628E-3
MEAN_MOTION_DDOT = 0

CCSDS_OMM_VERS = 2.0
CREATION_DATE  = 
ORIGINATOR     = 

OBJECT_NAME    = AIST-2T 2
OBJECT_ID      = 2025-313G
CENTER_NAME    = EARTH
REF_FRAME      = TEME
TIME_SYSTEM    = UTC
MEAN_ELEMENT_THEORY = SGP/SGP4

EPOCH          = 2026-01-19T11:44:44.040768
MEAN_MOTION    = 15.65136886
ECCENTRICITY   = .00102369
INCLINATION    = 97.1023
RA_OF_ASC_NODE = 96.8512
ARG_OF_PERICENTER = 161.3846
MEAN_ANOMALY   = 198.7791

EPHEMERIS_TYPE = 0
CLASSIFICATION_TYPE = U
NORAD_CAT_ID   = 67254
ELEMENT_SET_NO = 999
REV_AT_EPOCH   = 340
BSTAR          = .54048962E-3
MEAN_MOTION_DOT = .53555E-3
MEAN_MOTION_DDOT = 0

CCSDS_OMM_VERS = 2.0
CREATION_DATE  = 
ORIGINATOR     = 

OBJECT_NAME    = 2025-313H
OBJECT_ID      = 2025-313H
CENTER_NAME    = EARTH
REF_FRAME      = TEME
TIME_SYSTEM    = UTC
MEAN_ELEMENT_THEORY = SGP/SGP4

EPOCH          = 2026-01-19T14:13:09.611904
MEAN_MOTION    = 15.02189500
ECCENTRICITY   = .00915397
INCLINATION    = 97.3085
RA_OF_ASC_NODE = 95.8140
ARG_OF_PERICENTER = 120.6246
MEAN_ANOMALY   = 240.4046

EPHEMERIS_TYPE = 0
CLASSIFICATION_TYPE = U
NORAD_CAT_ID   = 67255
ELEMENT_SET_NO = 999
REV_AT_EPOCH   = 331
BSTAR          = .18582843E-3
MEAN_MOTION_DOT = .2618E-4
MEAN_MOTION_DDOT = 0

CCSDS_OMM_VERS = 2.0
CREATION_DATE  = 
ORIGINATOR     = 

OBJECT_NAME    = SITRO-AIS-57
OBJECT_ID      = 2025-313J
CENTER_NAME    = EARTH
REF_FRAME      = TEME
TIME_SYSTEM    = UTC
MEAN_ELEMENT_THEORY = SGP/SGP4

EPOCH          = 2026-01-19T14:27:35.047008
MEAN_MOTION    = 15.19962066
ECCENTRICITY   = .00173026
INCLINATION    = 97.4100
RA_OF_ASC_NODE = 96.6674
ARG_OF_PERICENTER = 159.6365
MEAN_ANOMALY   = 200.5564

EPHEMERIS_TYPE = 0
CLASSIFICATION_TYPE = U
NORAD_CAT_ID   = 67256
ELEMENT_SET_NO = 999
REV_AT_EPOCH   = 335
BSTAR          = .47736361E-3
MEAN_MOTION_DOT = .10248E-3
MEAN_MOTION_DDOT = 0

CCSDS_OMM_VERS = 2.0
CREATION_DATE  = 
ORIGINATOR     = 

OBJECT_NAME    = SITRO-AIS-59
OBJECT_ID      = 2025-313K
CENTER_NAME    = EARTH
REF_FRAME      = TEME
TIME_SYSTEM    = UTC
MEAN_ELEMENT_THEORY = SGP/SGP4

EPOCH          = 2026-01-19T14:26:52.919232
MEAN_MOTION    = 15.19985799
ECCENTRICITY   = .00170455
INCLINATION    = 97.4106
RA_OF_ASC_NODE = 96.6698
ARG_OF_PERICENTER = 161.6300
MEAN_ANOMALY   = 198.5554

EPHEMERIS_TYPE = 0
CLASSIFICATION_TYPE = U
NORAD_CAT_ID   = 67257
ELEMENT_SET_NO = 999
REV_AT_EPOCH   = 335
BSTAR          = .45982257E-3
MEAN_MOTION_DOT = .9874E-4
MEAN_MOTION_DDOT = 0

CCSDS_OMM_VERS = 2.0
CREATION_DATE  = 
ORIGINATOR     = 

OBJECT_NAME    = SITRO-AIS-58
OBJECT_ID      = 2025-313L
CENTER_NAME    = EARTH
REF_FRAME      = TEME
TIME_SYSTEM    = UTC
MEAN_ELEMENT_THEORY = SGP/SGP4

EPOCH          = 2026-01-19T14:26:11.652000
MEAN_MOTION    = 15.20027988
ECCENTRICITY   = .00169962
INCLINATION    = 97.4102
RA_OF_ASC_NODE = 96.6686
ARG_OF_PERICENTER = 160.9222
MEAN_ANOMALY   = 199.2653

EPHEMERIS_TYPE = 0
CLASSIFICATION_TYPE = U
NORAD_CAT_ID   = 67258
ELEMENT_SET_NO = 999
REV_AT_EPOCH   = 335
BSTAR          = .46287885E-3
MEAN_MOTION_DOT = .9953E-4
MEAN_MOTION_DDOT = 0

CCSDS_OMM_VERS = 2.0
CREATION_DATE  = 
ORIGINATOR     = 

OBJECT_NAME    = 2025-313M
OBJECT_ID      = 2025-313M
CENTER_NAME    = EARTH
REF_FRAME      = TEME
TIME_SYSTEM    = UTC
MEAN_ELEMENT_THEORY = SGP/SGP4

EPOCH          = 2026-01-19T11:11:29.481216
MEAN_MOTION    = 15.20339242
ECCENTRICITY   = .00161507
INCLINATION    = 97.4144
RA_OF_ASC_NODE = 96.5677
ARG_OF_PERICENTER = 159.9442
MEAN_ANOMALY   = 200.2431

EPHEMERIS_TYPE = 0
CLASSIFICATION_TYPE = U
NORAD_CAT_ID   = 67259
ELEMENT_SET_NO = 999
REV_AT_EPOCH   = 333
BSTAR          = .66222997E-3
MEAN_MOTION_DOT = .14402E-3
MEAN_MOTION_DDOT = 0

CCSDS_OMM_VERS = 2.0
CREATION_DATE  = 
ORIGINATOR     = 

OBJECT_NAME    = SITRO-AIS-60
OBJECT_ID      = 2025-313N
CENTER_NAME    = EARTH
REF_FRAME      = TEME
TIME_SYSTEM    = UTC
MEAN_ELEMENT_THEORY = SGP/SGP4

EPOCH          = 2026-01-19T14:23:44.761632
MEAN_MOTION    = 15.20097463
ECCENTRICITY   = .00163922
INCLINATION    = 97.4109
RA_OF_ASC_NODE = 96.6736
ARG_OF_PERICENTER = 161.1206
MEAN_ANOMALY   = 199.0640

EPHEMERIS_TYPE = 0
CLASSIFICATION_TYPE = U
NORAD_CAT_ID   = 67260
ELEMENT_SET_NO = 999
REV_AT_EPOCH   = 335
BSTAR          = .34738125E-3
MEAN_MOTION_DOT = .7463E-4
MEAN_MOTION_DDOT = 0

CCSDS_OMM_VERS = 2.0
CREATION_DATE  = 
ORIGINATOR     = 

OBJECT_NAME    = 2025-313P
OBJECT_ID      = 2025-313P
CENTER_NAME    = EARTH
REF_FRAME      = TEME
TIME_SYSTEM    = UTC
MEAN_ELEMENT_THEORY = SGP/SGP4

EPOCH          = 2026-01-19T11:08:45.962304
MEAN_MOTION    = 15.20566485
ECCENTRICITY   = .00159018
INCLINATION    = 97.4145
RA_OF_ASC_NODE = 96.5706
ARG_OF_PERICENTER = 160.2694
MEAN_ANOMALY   = 199.9160

EPHEMERIS_TYPE = 0
CLASSIFICATION_TYPE = U
NORAD_CAT_ID   = 67261
ELEMENT_SET_NO = 999
REV_AT_EPOCH   = 333
BSTAR          = .87863119E-3
MEAN_MOTION_DOT = .19268E-3
MEAN_MOTION_DDOT = 0

CCSDS_OMM_VERS = 2.0
CREATION_DATE  = 
ORIGINATOR     = 

OBJECT_NAME    = 2025-313Q
OBJECT_ID      = 2025-313Q
CENTER_NAME    = EARTH
REF_FRAME      = TEME
TIME_SYSTEM    = UTC
MEAN_ELEMENT_THEORY = SGP/SGP4

EPOCH          = 2026-01-19T11:11:25.340928
MEAN_MOTION    = 15.20309408
ECCENTRICITY   = .00160357
INCLINATION    = 97.4112
RA_OF_ASC_NODE = 96.5472
ARG_OF_PERICENTER = 162.0570
MEAN_ANOMALY   = 198.1235

EPHEMERIS_TYPE = 0
CLASSIFICATION_TYPE = U
NORAD_CAT_ID   = 67262
ELEMENT_SET_NO = 999
REV_AT_EPOCH   = 333
BSTAR          = .59149426E-3
MEAN_MOTION_DOT = .12842E-3
MEAN_MOTION_DDOT = 0

CCSDS_OMM_VERS = 2.0
CREATION_DATE  = 
ORIGINATOR     = 

OBJECT_NAME    = DCS-1
OBJECT_ID      = 2025-313R
CENTER_NAME    = EARTH
REF_FRAME      = TEME
TIME_SYSTEM    = UTC
MEAN_ELEMENT_THEORY = SGP/SGP4

EPOCH          = 2026-01-19T11:12:02.427264
MEAN_MOTION    = 15.20246549
ECCENTRICITY   = .00160044
INCLINATION    = 97.4125
RA_OF_ASC_NODE = 96.5618
ARG_OF_PERICENTER = 161.0963
MEAN_ANOMALY   = 199.0870

EPHEMERIS_TYPE = 0
CLASSIFICATION_TYPE = U
NORAD_CAT_ID   = 67263
ELEMENT_SET_NO = 999
REV_AT_EPOCH   = 333
BSTAR          = .51243155E-3
MEAN_MOTION_DOT = .11093E-3
MEAN_MOTION_DDOT = 0

