ZORKIY-2M-VPE           
1 67252U 25313E   26019.64258911  .00007756  00000+0  34491-3 0  9998
2 67252  97.4107  96.7714 0011447 141.8698 218.3351 15.21715606  3369
AIST-2T 1               
1 67253U 25313F   26019.48746305  .00061628  00000+0  61083-3 0  9995
2 67253  97.1024  96.8542 0010617 159.0406 201.1292 15.65556550  3410
AIST-2T 2               
1 67254U 25313G   26019.48939862  .00053555  00000+0  54049-3 0  9992
2 67254  97.1023  96.8512 0010236 161.3846 198.7791 15.65136886  3408
2025-313H               
1 67255U 25313H   26019.59247236  .00002618  00000+0  18583-3 0  9999
2 67255  97.3085  95.8140 0091539 120.6246 240.4046 15.02189500  3312
SITRO-AIS-57            
1 67256U 25313J   26019.60248897  .00010248  00000+0  47736-3 0  9996
2 67256  97.4100  96.6674 0017302 159.6365 200.5564 15.19962066  3353
SITRO-AIS-59            
1 67257U 25313K   26019.60200138  .00009874  00000+0  45982-3 0  9997
2 67257  97.4106  96.6698 0017045 161.6300 198.5554 15.19985799  3355
SITRO-AIS-58            
1 67258U 25313L   26019.60152375  .00009953  00000+0  46288-3 0  9995
2 67258  97.4102  96.6686 0016996 160.9222 199.2653 15.20027988  3355
2025-313M               
1 67259U 25313M   26019.46631344  .00014402  00000+0  66223-3 0  9994
2 67259  97.4144  96.5677 0016150 159.9442 200.2431 15.20339242  3339
SITRO-AIS-60            
1 67260U 25313N   26019.59982363  .00007463  00000+0  34738-3 0  9995
2 67260  97.4109  96.6736 0016392 161.1206 199.0640 15.20097463  3355
2025-313P               
1 67261U 25313P   26019.46442086  .00019268  00000+0  87863-3 0  9998
2 67261  97.4145  96.5706 0015901 160.2694 199.9160 15.20566485  3337
2025-313Q               
1 67262U 25313Q   26019.46626552  .00012842  00000+0  59149-3 0  9998
2 67262  97.4112  96.5472 0016035 162.0570 198.1235 15.20309408  3338
DCS-1                   
1 67263U 25313R   26019.46669476  .00011093  00000+0  51243-3 0  9995
2 67263  97.4125  96.5618 0016004 161.0963 199.0870 15.20246549  3337
